{"type": "FeatureCollection", "features": [{"type": "Feature", "properties": {"norad_id": 24946, "name": "IRIDIUM 33", "group": "iridium-33-debris", "lat": 27.877773804221075, "lon": -113.86767186827336, "alt_km": 770.425874499666, "timestamp": "2025-12-13T03:42:11.657087+00:00", "meta": {"OBJECT_NAME": "IRIDIUM 33", "OBJECT_ID": "1997-051C", "EPOCH": "2025-12-12T06:54:54.433728", "MEAN_MOTION": 14.35037182, "ECCENTRICITY": 0.00069711, "INCLINATION": 86.3869, "RA_OF_ASC_NODE": 68.4112, "ARG_OF_PERICENTER": 201.9073, "MEAN_ANOMALY": 158.1826, "EPHEMERIS_TYPE": 0, "CLASSIFICATION_TYPE": "U", "NORAD_CAT_ID": 24946, "ELEMENT_SET_NO": 999, "REV_AT_EPOCH": 47828, "BSTAR": 0.00019352653, "MEAN_MOTION_DOT": 5.71e-06, "MEAN_MOTION_DDOT": 0}, "tle": {"line1": "1 24946U 97051C   25346.28813002  .00000571  00000+0  19353-3 0  9997", "line2": "2 24946  86.3869  68.4112 0006971 201.9073 158.1826 14.35037182478288"}}, "geometry": {"type": "Point", "coordinates": [-113.86767186827336, 27.877773804221075]}}, {"type": "Feature", "properties": {"norad_id": 33773, "name": "IRIDIUM 33 DEB", "group": "iridium-33-debris", "lat": 58.55003108702288, "lon": -125.49200954895944, "alt_km": 734.0270435879884, "timestamp": "2025-12-13T03:42:11.657112+00:00", "meta": {"OBJECT_NAME": "IRIDIUM 33 DEB", "OBJECT_ID": "1997-051L", "EPOCH": "2025-12-12T07:10:33.831552", "MEAN_MOTION": 14.43256022, "ECCENTRICITY": 0.00124838, "INCLINATION": 86.4013, "RA_OF_ASC_NODE": 60.7764, "ARG_OF_PERICENTER": 147.544, "MEAN_ANOMALY": 212.6532, "EPHEMERIS_TYPE": 0, "CLASSIFICATION_TYPE": "U", "NORAD_CAT_ID": 33773, "ELEMENT_SET_NO": 999, "REV_AT_EPOCH": 88341, "BSTAR": 0.00049735243, "MEAN_MOTION_DOT": 1.694e-05, "MEAN_MOTION_DDOT": 0}, "tle": {"line1": "1 33773U 97051L   25346.29900268  .00001694  00000+0  49735-3 0  9991", "line2": "2 33773  86.4013  60.7764 0012483 147.5440 212.6532 14.43256022883414"}}, "geometry": {"type": "Point", "coordinates": [-125.49200954895944, 58.55003108702288]}}, {"type": "Feature", "properties": {"norad_id": 33775, "name": "IRIDIUM 33 DEB", "group": "iridium-33-debris", "lat": -22.295784297303886, "lon": -129.12900466466695, "alt_km": 752.4476874450638, "timestamp": "2025-12-13T03:42:11.657128+00:00", "meta": {"OBJECT_NAME": "IRIDIUM 33 DEB", "OBJECT_ID": "1997-051N", "EPOCH": "2025-12-12T05:23:08.151360", "MEAN_MOTION": 14.41467189, "ECCENTRICITY": 0.0014235, "INCLINATION": 86.3638, "RA_OF_ASC_NODE": 49.7737, "ARG_OF_PERICENTER": 156.1691, "MEAN_ANOMALY": 263.4776, "EPHEMERIS_TYPE": 0, "CLASSIFICATION_TYPE": "U", "NORAD_CAT_ID": 33775, "ELEMENT_SET_NO": 999, "REV_AT_EPOCH": 88133, "BSTAR": 0.00050901024, "MEAN_MOTION_DOT": 1.672e-05, "MEAN_MOTION_DDOT": 0}, "tle": {"line1": "1 33775U 97051N   25346.22439990  .00001672  00000+0  50901-3 0  9998", "line2": "2 33775  86.3638  49.7737 0014235 156.1691 263.4776 14.41467189881335"}}, "geometry": {"type": "Point", "coordinates": [-129.12900466466695, -22.295784297303886]}}, {"type": "Feature", "properties": {"norad_id": 33776, "name": "IRIDIUM 33 DEB", "group": "iridium-33-debris", "lat": 66.53081204105725, "lon": 88.93065958009468, "alt_km": 763.3572898899884, "timestamp": "2025-12-13T03:42:11.657140+00:00", "meta": {"OBJECT_NAME": "IRIDIUM 33 DEB", "OBJECT_ID": "1997-051P", "EPOCH": "2025-12-12T07:37:58.224000", "MEAN_MOTION": 14.38234134, "ECCENTRICITY": 0.00142872, "INCLINATION": 86.4036, "RA_OF_ASC_NODE": 80.9529, "ARG_OF_PERICENTER": 191.7377, "MEAN_ANOMALY": 228.0903, "EPHEMERIS_TYPE": 0, "CLASSIFICATION_TYPE": "U", "NORAD_CAT_ID": 33776, "ELEMENT_SET_NO": 999, "REV_AT_EPOCH": 88076, "BSTAR": 0.00046256544, "MEAN_MOTION_DOT": 1.426e-05, "MEAN_MOTION_DDOT": 0}, "tle": {"line1": "1 33776U 97051P   25346.31803500  .00001426  00000+0  46257-3 0  9997", "line2": "2 33776  86.4036  80.9529 0014287 191.7377 228.0903 14.38234134880761"}}, "geometry": {"type": "Point", "coordinates": [88.93065958009468, 66.53081204105725]}}, {"type": "Feature", "properties": {"norad_id": 33777, "name": "IRIDIUM 33 DEB", "group": "iridium-33-debris", "lat": -60.4201162639142, "lon": -138.57102259747066, "alt_km": 710.9771858821005, "timestamp": "2025-12-13T03:42:11.657152+00:00", "meta": {"OBJECT_NAME": "IRIDIUM 33 DEB", "OBJECT_ID": "1997-051Q", "EPOCH": "2025-12-12T03:30:11.220480", "MEAN_MOTION": 14.55608327, "ECCENTRICITY": 0.00051496, "INCLINATION": 86.3787, "RA_OF_ASC_NODE": 35.4615, "ARG_OF_PERICENTER": 251.76, "MEAN_ANOMALY": 108.3047, "EPHEMERIS_TYPE": 0, "CLASSIFICATION_TYPE": "U", "NORAD_CAT_ID": 33777, "ELEMENT_SET_NO": 999, "REV_AT_EPOCH": 88525, "BSTAR": 0.0013938391, "MEAN_MOTION_DOT": 6.101e-05, "MEAN_MOTION_DDOT": 0}, "tle": {"line1": "1 33777U 97051Q   25346.14596320  .00006101  00000+0  13938-2 0  9992", "line2": "2 33777  86.3787  35.4615 0005149 251.7600 108.3047 14.55608327885254"}}, "geometry": {"type": "Point", "coordinates": [-138.57102259747066, -60.4201162639142]}}, {"type": "Feature", "properties": {"norad_id": 33850, "name": "IRIDIUM 33 DEB", "group": "iridium-33-debris", "lat": -4.18663541619198, "lon": -149.72997078935907, "alt_km": 747.1078353405319, "timestamp": "2025-12-13T03:42:11.657165+00:00", "meta": {"OBJECT_NAME": "IRIDIUM 33 DEB", "OBJECT_ID": "1997-051T", "EPOCH": "2025-12-12T03:47:17.414016", "MEAN_MOTION": 14.4214467, "ECCENTRICITY": 0.00121703, "INCLINATION": 86.3418, "RA_OF_ASC_NODE": 30.43, "ARG_OF_PERICENTER": 162.7962, "MEAN_ANOMALY": 251.1586, "EPHEMERIS_TYPE": 0, "CLASSIFICATION_TYPE": "U", "NORAD_CAT_ID": 33850, "ELEMENT_SET_NO": 999, "REV_AT_EPOCH": 88144, "BSTAR": 0.000462436, "MEAN_MOTION_DOT": 1.541e-05, "MEAN_MOTION_DDOT": 0}, "tle": {"line1": "1 33850U 97051T   25346.15784044  .00001541  00000+0  46244-3 0  9997", "line2": "2 33850  86.3418  30.4300 0012170 162.7962 251.1586 14.42144670881441"}}, "geometry": {"type": "Point", "coordinates": [-149.72997078935907, -4.18663541619198]}}, {"type": "Feature", "properties": {"norad_id": 33853, "name": "IRIDIUM 33 DEB", "group": "iridium-33-debris", "lat": 39.30966219519811, "lon": 166.3458488443347, "alt_km": 901.6756312994985, "timestamp": "2025-12-13T03:42:11.657177+00:00", "meta": {"OBJECT_NAME": "IRIDIUM 33 DEB", "OBJECT_ID": "1997-051W", "EPOCH": "2025-12-11T23:41:06.381888", "MEAN_MOTION": 13.99054711, "ECCENTRICITY": 0.020703, "INCLINATION": 86.0002, "RA_OF_ASC_NODE": 350.1415, "ARG_OF_PERICENTER": 238.1458, "MEAN_ANOMALY": 148.4368, "EPHEMERIS_TYPE": 0, "CLASSIFICATION_TYPE": "U", "NORAD_CAT_ID": 33853, "ELEMENT_SET_NO": 999, "REV_AT_EPOCH": 85335, "BSTAR": 0.0027296, "MEAN_MOTION_DOT": 4.759e-05, "MEAN_MOTION_DDOT": 0}, "tle": {"line1": "1 33853U 97051W   25345.98687942  .00004759  00000+0  27296-2 0  9998", "line2": "2 33853  86.0002 350.1415 0207030 238.1458 148.4368 13.99054711853350"}}, "geometry": {"type": "Point", "coordinates": [166.3458488443347, 39.30966219519811]}}, {"type": "Feature", "properties": {"norad_id": 33860, "name": "IRIDIUM 33 DEB", "group": "iridium-33-debris", "lat": 24.349198293331604, "lon": -154.58528492176998, "alt_km": 673.911728724941, "timestamp": "2025-12-13T03:42:11.657188+00:00", "meta": {"OBJECT_NAME": "IRIDIUM 33 DEB", "OBJECT_ID": "1997-051AD", "EPOCH": "2025-12-12T02:34:47.224128", "MEAN_MOTION": 14.67356525, "ECCENTRICITY": 0.00075567, "INCLINATION": 86.3837, "RA_OF_ASC_NODE": 27.5179, "ARG_OF_PERICENTER": 359.9518, "MEAN_ANOMALY": 29.3124, "EPHEMERIS_TYPE": 0, "CLASSIFICATION_TYPE": "U", "NORAD_CAT_ID": 33860, "ELEMENT_SET_NO": 999, "REV_AT_EPOCH": 88713, "BSTAR": 0.0018445865, "MEAN_MOTION_DOT": 0.00010448, "MEAN_MOTION_DDOT": 0}, "tle": {"line1": "1 33860U 97051AD  25346.10749102  .00010448  00000+0  18446-2 0  9997", "line2": "2 33860  86.3837  27.5179 0007556 359.9518  29.3124 14.67356525887133"}}, "geometry": {"type": "Point", "coordinates": [-154.58528492176998, 24.349198293331604]}}, {"type": "Feature", "properties": {"norad_id": 33862, "name": "IRIDIUM 33 DEB", "group": "iridium-33-debris", "lat": -14.475225923434278, "lon": -141.7238650329249, "alt_km": 689.8340248150953, "timestamp": "2025-12-13T03:42:11.657199+00:00", "meta": {"OBJECT_NAME": "IRIDIUM 33 DEB", "OBJECT_ID": "1997-051AF", "EPOCH": "2025-12-12T04:11:14.356608", "MEAN_MOTION": 14.69464382, "ECCENTRICITY": 0.00535195, "INCLINATION": 86.4093, "RA_OF_ASC_NODE": 37.7792, "ARG_OF_PERICENTER": 71.1208, "MEAN_ANOMALY": 342.7383, "EPHEMERIS_TYPE": 0, "CLASSIFICATION_TYPE": "U", "NORAD_CAT_ID": 33862, "ELEMENT_SET_NO": 999, "REV_AT_EPOCH": 88815, "BSTAR": 0.002179996, "MEAN_MOTION_DOT": 0.00013234, "MEAN_MOTION_DDOT": 0}, "tle": {"line1": "1 33862U 97051AF  25346.17447172  .00013234  00000+0  21800-2 0  9992", "line2": "2 33862  86.4093  37.7792 0053519  71.1208 342.7383 14.69464382888158"}}, "geometry": {"type": "Point", "coordinates": [-141.7238650329249, -14.475225923434278]}}, {"type": "Feature", "properties": {"norad_id": 33866, "name": "IRIDIUM 33 DEB", "group": "iridium-33-debris", "lat": -14.098479492860067, "lon": -86.20869243932422, "alt_km": 743.724745868808, "timestamp": "2025-12-13T03:42:11.657210+00:00", "meta": {"OBJECT_NAME": "IRIDIUM 33 DEB", "OBJECT_ID": "1997-051AK", "EPOCH": "2025-12-12T06:51:08.189280", "MEAN_MOTION": 14.25273086, "ECCENTRICITY": 0.01144477, "INCLINATION": 86.2996, "RA_OF_ASC_NODE": 93.2276, "ARG_OF_PERICENTER": 162.8384, "MEAN_ANOMALY": 255.4806, "EPHEMERIS_TYPE": 0, "CLASSIFICATION_TYPE": "U", "NORAD_CAT_ID": 33866, "ELEMENT_SET_NO": 999, "REV_AT_EPOCH": 86804, "BSTAR": 0.0010790636, "MEAN_MOTION_DOT": 2.737e-05, "MEAN_MOTION_DDOT": 0}, "tle": {"line1": "1 33866U 97051AK  25346.28551145  .00002737  00000+0  10791-2 0  9997", "line2": "2 33866  86.2996  93.2276 0114447 162.8384 255.4806 14.25273086868044"}}, "geometry": {"type": "Point", "coordinates": [-86.20869243932422, -14.098479492860067]}}]}